HIMAWARI-8              
1 40267U 14060A   24031.80408507 -.00000259  00000+0  00000+0 0  9997
2 40267   0.0362 220.9961 0000742  77.9385 261.7035  1.00272318 34165
